NORAD_CAT_ID,OBJECT_NAME,OBJECT_TYPE,EPOCH,MEAN_MOTION,ECCENTRICITY,INCLINATION,RA_OF_ASC_NODE,ARG_OF_PERICENTER,MEAN_ANOMALY,BSTAR,MEAN_MOTION_DOT,MEAN_MOTION_DDOT,TLE_LINE0,TLE_LINE1,TLE_LINE2,SEMIMAJOR_AXIS,PERIOD,APOGEE,PERIGEE,DECAYED
52269.0,STARLINK-3791,PAYLOAD,2022-11-28 08:06:42,15.08832485,0.0001974,53.2206,84.2533,47.7126,312.4033,-0.00010068,-1.89e-05,0.0,0 STARLINK-3791,1 52269U 22041J   22332.33798618 -.00001890  00000-0 -10068-3 0  9998,2 52269  53.2206  84.2533 0001974  47.7126 312.4033 15.08832485 34824,6917.903,95.438,541.134,538.403,0.0
52269.0,STARLINK-3791,PAYLOAD,2022-11-28 17:39:00,15.08841942,0.0002037,53.2203,82.4689,45.4166,314.6992,-2.8386e-05,-7.400000000000001e-06,0.0,0 STARLINK-3791,1 52269U 22041J   22332.73541867 -.00000740  00000-0 -28386-4 0  9990,2 52269  53.2203  82.4689 0002037  45.4166 314.6992 15.08841942 34885,6917.874,95.437,541.149,538.33,0.0
52269.0,STARLINK-3791,PAYLOAD,2022-11-29 07:57:28,15.08842155,0.0001835,53.2206,79.7922,48.4341,311.6808,0.00013561,1.871e-05,0.0,0 STARLINK-3791,1 52269U 22041J   22333.33157460  .00001871  00000-0  13561-3 0  9991,2 52269  53.2206  79.7922 0001835  48.4341 311.6808 15.08842155 33755,6917.874,95.437,541.008,538.469,0.0
52269.0,STARLINK-3791,PAYLOAD,2022-11-29 17:29:47,15.08837217,0.0002045,53.2184,78.0078,34.2575,325.8549,9.6695e-05,1.251e-05,0.0,0 STARLINK-3791,1 52269U 22041J   22333.72901998  .00001251  00000-0  96695-4 0  9999,2 52269  53.2184  78.0078 0002045  34.2575 325.8549 15.08837217 33819,6917.889,95.438,541.169,538.339,0.0
52269.0,STARLINK-3791,PAYLOAD,2022-11-30 07:48:16,15.08843362,0.0001968,53.2182,75.3315,32.3451,327.7661,-0.00010085,-1.893e-05,0.0,0 STARLINK-3791,1 52269U 22041J   22334.32518582 -.00001893  00000-0 -10085-3 0  9991,2 52269  53.2182  75.3315 0001968  32.3451 327.7661 15.08843362 35126,6917.87,95.437,541.097,538.374,0.0
52269.0,STARLINK-3791,PAYLOAD,2022-11-30 17:20:34,15.08833972,0.0002,53.2183,73.5474,35.1492,324.9632,0.0001419,1.971e-05,0.0,0 STARLINK-3791,1 52269U 22041J   22334.72262588  .00001971  00000-0  14190-3 0  9993,2 52269  53.2183  73.5474 0002000  35.1492 324.9632 15.08833972 33960,6917.899,95.438,541.1469999999998,538.38,0.0
52269.0,STARLINK-3791,PAYLOAD,2022-12-01 07:39:02,15.0884092,0.0002018,53.2183,70.87100000000002,35.0184,325.0941,9.6103e-05,1.242e-05,0.0,0 STARLINK-3791,1 52269U 22041J   22335.31878179  .00001242  00000-0  96103-4 0  9994,2 52269  53.2183  70.8710 0002018  35.0184 325.0941 15.08840920 34056,6917.878000000002,95.437,541.139,538.347,0.0
52269.0,STARLINK-3791,PAYLOAD,2022-12-01 23:32:53,15.08848875,0.0002052,53.2185,67.8974,36.3464,323.7667,0.00014808,2.07e-05,0.0,0 STARLINK-3791,1 52269U 22041J   22335.98117386  .00002070  00000-0  14808-3 0  9994,2 52269  53.2185  67.8974 0002052  36.3464 323.7667 15.08848875 35372,6917.853,95.437,541.138,538.299,0.0
52269.0,STARLINK-3791,PAYLOAD,2022-12-02 12:15:58,15.08843976,0.0002096,53.219,65.5189,38.2954,321.8187,8.8546e-05,1.121e-05,0.0,0 STARLINK-3791,1 52269U 22041J   22336.51109824  .00001121  00000-0  88546-4 0  9999,2 52269  53.2190  65.5189 0002096  38.2954 321.8187 15.08843976 35456,6917.868,95.437,541.183,538.283,0.0
52269.0,STARLINK-3791,PAYLOAD,2022-12-02 23:23:41,15.08836323,0.0002039,53.2182,63.4371,37.0797,323.0336,2.1553e-06,-2.54e-06,0.0,0 STARLINK-3791,1 52269U 22041J   22336.97478452 -.00000254  00000-0  21553-5 0  9998,2 52269  53.2182  63.4371 0002039  37.0797 323.0336 15.08836323 35522,6917.892,95.438,541.1669999999998,538.346,0.0
52269.0,STARLINK-3791,PAYLOAD,2022-12-03 12:06:46,15.08833664,0.0002113,53.2184,61.0584,39.2834,320.8311,-4.7856e-05,-1.05e-05,0.0,0 STARLINK-3791,1 52269U 22041J   22337.50470844 -.00001050  00000-0 -47856-4 0  9994,2 52269  53.2184  61.0584 0002113  39.2834 320.8311 15.08833664 34389,6917.9,95.438,541.227,538.303,0.0
52269.0,STARLINK-3791,PAYLOAD,2022-12-04 05:36:00,15.08842366,0.0002139,53.2179,57.7873,39.4696,320.6452,2.8328e-05,1.63e-06,0.0,0 STARLINK-3791,1 52269U 22041J   22338.23333996  .00000163  00000-0  28328-4 0  9996,2 52269  53.2179  57.7873 0002139  39.4696 320.6452 15.08842366 35713,6917.873000000001,95.437,541.2180000000002,538.258,0.0
52269.0,STARLINK-3791,PAYLOAD,2022-12-04 11:57:33,15.08835094,0.0002195,53.2187,56.5989,36.9209,323.1934,-1.0701e-05,-4.59e-06,0.0,0 STARLINK-3791,1 52269U 22041J   22338.49830643 -.00000459  00000-0 -10701-4 0  9991,2 52269  53.2187  56.5989 0002195  36.9209 323.1934 15.08835094 34533,6917.895,95.438,541.279,538.242,0.0
52269.0,STARLINK-3791,PAYLOAD,2022-12-04 16:43:42,15.08838542,0.0002177,53.2187,55.7061,41.0606,319.0549,-2.8858e-05,-7.48e-06,0.0,0 STARLINK-3791,1 52269U 22041J   22338.69702499 -.00000748  00000-0 -28858-4 0  9993,2 52269  53.2187  55.7061 0002177  41.0606 319.0549 15.08838542 35788,6917.885,95.438,541.256,538.244,0.0
52269.0,STARLINK-3791,PAYLOAD,2022-12-05 16:34:29,15.08843405,0.0002236,53.219,51.2452,37.1732,322.9415,0.0001295,1.774e-05,0.0,0 STARLINK-3791,1 52269U 22041J   22339.69061940  .00001774  00000-0  12950-3 0  9996,2 52269  53.2190  51.2452 0002236  37.1732 322.9415 15.08843405 35935,6917.87,95.437,541.2819999999998,538.188,0.0
52269.0,STARLINK-3791,PAYLOAD,2022-12-06 00:31:24,15.088551,0.000219,53.2182,49.7595,33.1424,326.9705,0.00012818,1.753e-05,0.0,0 STARLINK-3791,1 52269U 22041J   22340.02181044  .00001753  00000-0  12818-3 0  9993,2 52269  53.2182  49.7595 0002190  33.1424 326.9705 15.08855100 35985,6917.834,95.437,541.214,538.184,0.0
52269.0,STARLINK-3791,PAYLOAD,2022-12-06 10:03:44,15.08832841,0.0002274,53.2186,47.9752,31.9249,328.1881,1.8529e-05,7e-08,0.0,0 STARLINK-3791,1 52269U 22041J   22340.41926727  .00000007  00000-0  18529-4 0  9998,2 52269  53.2186  47.9752 0002274  31.9249 328.1881 15.08832841 36042,6917.901999999999,95.438,541.34,538.194,0.0
52269.0,STARLINK-3791,PAYLOAD,2022-12-06 13:14:30,15.08833977,0.0002244,53.2186,47.3803,33.4276,326.6857,4.1409e-05,3.71e-06,0.0,0 STARLINK-3791,1 52269U 22041J   22340.55174683  .00000371  00000-0  41409-4 0  9996,2 52269  53.2186  47.3803 0002244  33.4276 326.6857 15.08833977 34840,6917.899,95.438,541.316,538.211,0.0
52269.0,STARLINK-3791,PAYLOAD,2022-12-06 16:25:18,15.08823273,0.0002342,53.2188,46.7857,34.0448,326.0694,-4.1776e-05,-9.53e-06,0.0,0 STARLINK-3791,1 52269U 22041J   22340.68423806 -.00000953  00000-0 -41776-4 0  9999,2 52269  53.2188  46.7857 0002342  34.0448 326.0694 15.08823273 34864,6917.932,95.439,541.4169999999998,538.1759999999998,0.0
52269.0,STARLINK-3791,PAYLOAD,2022-12-06 21:11:27,15.08824952,0.0002255,53.2186,45.8939,33.8099,326.3036,-6.0642e-05,-1.253e-05,0.0,0 STARLINK-3791,1 52269U 22041J   22340.88295835 -.00001253  00000-0 -60642-4 0  9997,2 52269  53.2186  45.8939 0002255  33.8099 326.3036 15.08824952 36113,6917.926,95.439,541.351,538.231,0.0
52269.0,STARLINK-3791,PAYLOAD,2022-12-07 03:32:59,15.08833622,0.0002351,53.2181,44.7048,33.2518,326.8621,-7.784899999999999e-05,-1.527e-05,0.0,0 STARLINK-3791,1 52269U 22041J   22341.14790828 -.00001527  00000-0 -77849-4 0  9990,2 52269  53.2181  44.7048 0002351  33.2518 326.8621 15.08833622 36157,6917.9,95.438,541.391,538.138,0.0
52269.0,STARLINK-3791,PAYLOAD,2022-12-07 16:16:04,15.08830991,0.0002381,53.218,42.3258,34.0132,326.1012,-0.00013841,-2.49e-05,0.0,0 STARLINK-3791,1 52269U 22041J   22341.67783291 -.00002490  00000-0 -13841-3 0  9995,2 52269  53.2180  42.3258 0002381  34.0132 326.1012 15.08830991 35014,6917.908,95.438,541.42,538.126,0.0
52269.0,STARLINK-3791,PAYLOAD,2022-12-08 04:59:09,15.08846477,0.000238,53.2179,39.9469,34.7554,325.3593,0.00039522,6.008e-05,0.0,0 STARLINK-3791,1 52269U 22041J   22342.20774958  .00006008  00000-0  39522-3 0  9996,2 52269  53.2179  39.9469 0002380  34.7554 325.3593 15.08846477 36317,6917.861,95.437,541.372,538.0790000000002,0.0
52269.0,STARLINK-3791,PAYLOAD,2022-12-08 12:56:05,15.08865305,0.0002421,53.2176,38.4604,35.8591,324.2563,0.0013141,0.00020703,0.0,0 STARLINK-3791,1 52269U 22041J   22342.53894866  .00020703  00000-0  13141-2 0  9999,2 52269  53.2176  38.4604 0002421  35.8591 324.2563 15.08865305 35144,6917.803000000001,95.436,541.3430000000002,537.993,0.0
52269.0,STARLINK-3791,PAYLOAD,2022-12-08 16:06:51,15.08870667,0.0002477,53.2173,37.8662,35.2531,324.8624,0.0011562,0.00018177,0.0,0 STARLINK-3791,1 52269U 22041J   22342.67142591  .00018177  00000-0  11562-2 0  9992,2 52269  53.2173  37.8662 0002477  35.2531 324.8624 15.08870667 36385,6917.7869999999975,95.436,541.365,537.938,0.0
52269.0,STARLINK-3791,PAYLOAD,2022-12-09 01:39:09,15.08853979,0.0002322,53.2174,36.0816,35.1076,325.0069,0.00031403,4.715e-05,0.0,0 STARLINK-3791,1 52269U 22041J   22343.06886565  .00004715  00000-0  31403-3 0  9992,2 52269  53.2174  36.0816 0002322  35.1076 325.0069 15.08853979 36440,6917.8380000000025,95.437,541.309,538.096,0.0
52269.0,STARLINK-3791,PAYLOAD,2022-12-09 12:46:52,15.08839782,0.0002315,53.2171,34.0,33.7342,326.3798,-2.4664e-05,-6.81e-06,0.0,0 STARLINK-3791,1 52269U 22041J   22343.53254807 -.00000681  00000-0 -24664-4 0  9994,2 52269  53.2171  34.0000 0002315  33.7342 326.3798 15.08839782 35293,6917.880999999999,95.438,541.3480000000002,538.145,0.0
52269.0,STARLINK-3791,PAYLOAD,2022-12-09 19:08:25,15.08829336,0.000234,53.2174,32.8104,32.0153,328.0981,-0.00018464,-3.225e-05,0.0,0 STARLINK-3791,1 52269U 22041J   22343.79751426 -.00003225  00000-0 -18464-3 0  9998,2 52269  53.2174  32.8104 0002340  32.0153 328.0981 15.08829336 36554,6917.913000000001,95.438,541.3969999999998,538.159,0.0
52269.0,STARLINK-3791,PAYLOAD,2022-12-10 12:37:39,15.08843005,0.0002416,53.217,29.5395,31.3278,328.7857,0.00059065,9.125e-05,0.0,0 STARLINK-3791,1 52269U 22041J   22344.52615581  .00009125  00000-0  59065-3 0  9996,2 52269  53.2170  29.5395 0002416  31.3278 328.7857 15.08843005 36669,6917.871,95.437,541.408,538.065,0.0
